[Satellite]
VERSION=1.1
NAME=COSMOS 1975
NICKNAME=COSMOS 1975
TLE1=1 19573U 88093A   17185.96610392 -.00000014  00000-0 -30476-5 0  9993
TLE2=2 19573  82.5208 328.2770 0013245 234.2326 125.7670 15.04183834541340
